ONEWEB-0683             
1 56719U 23068K   25276.05768844 -.00000010  00000+0 -60841-4 0  9996
2 56719  87.8994 310.4951 0002154  93.8340 266.3037 13.15546573115618
ONEWEB-0684             
1 56720U 23068L   25276.52196003 -.00000057  00000+0 -18577-3 0  9991
2 56720  87.8986 310.3992 0001912 139.5354 220.5919 13.15546878115506
ONEWEB-0686             
1 56721U 23068M   25277.43790574  .00000115  00000+0  26597-3 0  9990
2 56721  87.8958 279.7587 0002153  95.8096 264.3281 13.16593545118065
ONEWEB-0694             
1 56722U 23068N   25277.48066160  .00000064  00000+0  13498-3 0  9992
2 56722  87.8981 279.6840 0002316  86.6455 273.4941 13.16594343118129
ONEWEB-0696             
1 56723U 23068P   25276.55524224  .00000127  00000+0  30262-3 0  9998
2 56723  87.8993 310.4481 0001653 101.3953 258.7364 13.15547248115627
ONEWEB-0703             
1 56724U 23068Q   25277.47743875  .00000154  00000+0  37432-3 0  9992
2 56724  87.8990 310.2474 0000863 103.6494 256.4732 13.15546371115633
ONEWEB-0721             
1 56725U 23068R   25276.50197822  .00000102  00000+0  21048-3 0  9990
2 56725  86.6862 167.3628 0001695  72.7468 287.3851 13.22447113124011
ONEWEB-0015             
1 61594U 24188A   25277.48639363  .00000328  00000+0  88991-3 0  9993
2 61594  87.8799  72.0306 0001809  72.7276 287.4050 13.11418334 50945
